start=new Date('2022-01-24T00:00:00.000Z').valueOf();
sats=[{"REF_FRAME":"TEME","ECCENTRICITY":"0.00015910","TIME_SYSTEM":"UTC","PERIOD":"95.592","BSTAR":"0.00027542000000","PERIAPSIS":"546.111","SEMIMAJOR_AXIS":"6925.348","LAUNCH_DATE":"2021-04-29","TLE_LINE1":"1 48310U 21036AL  22023.35325069  .00003823  00000-0  27542-3 0  9999","ARG_OF_PERICENTER":"71.2955","EPHEMERIS_TYPE":"0","MEAN_MOTION_DOT":"0.00003823","INCLINATION":"53.0562","TLE_LINE2":"2 48310  53.0562  13.8173 0001591  71.2955 288.8207 15.06400268 41133","SITE":"AFETR","OBJECT_NAME":"STARLINK-2536","CENTER_NAME":"EARTH","CLASSIFICATION_TYPE":"U","COUNTRY_CODE":"US","MEAN_MOTION":"15.06400268","NORAD_CAT_ID":"48310","OBJECT_TYPE":"PAYLOAD","RA_OF_ASC_NODE":"13.8173","DECAY_DATE":null,"GP_ID":"194464704","MEAN_MOTION_DDOT":"0.0000000000000","REV_AT_EPOCH":"4113","EPOCH":"2022-01-23T08:28:40.859616","RCS_SIZE":"LARGE","APOAPSIS":"548.315","ELEMENT_SET_NO":"999","MEAN_ELEMENT_THEORY":"SGP4","OBJECT_ID":"2021-036AL","FILE":"3280923","MEAN_ANOMALY":"288.8207"},{"GP_ID":"194464947","DECAY_DATE":null,"RA_OF_ASC_NODE":"13.2578","OBJECT_TYPE":"PAYLOAD","REV_AT_EPOCH":"4115","MEAN_MOTION_DDOT":"0.0000000000000","FILE":"3280923","OBJECT_ID":"2021-036AM","MEAN_ELEMENT_THEORY":"SGP4","RCS_SIZE":"LARGE","EPOCH":"2022-01-23T11:34:26.758560","APOAPSIS":"548.246","ELEMENT_SET_NO":"999","MEAN_ANOMALY":"284.8038","TLE_LINE2":"2 48311  53.0558  13.2578 0001580  75.3126 284.8038 15.06420074 41152","OBJECT_NAME":"STARLINK-2534","SITE":"AFETR","CENTER_NAME":"EARTH","CLASSIFICATION_TYPE":"U","NORAD_CAT_ID":"48311","MEAN_MOTION":"15.06420074","COUNTRY_CODE":"US","LAUNCH_DATE":"2021-04-29","SEMIMAJOR_AXIS":"6925.287","EPHEMERIS_TYPE":"0","ARG_OF_PERICENTER":"75.3126","TLE_LINE1":"1 48311U 21036AM  22023.48225415  .00006748  00000-0  47120-3 0  9991","MEAN_MOTION_DOT":"0.00006748","INCLINATION":"53.0558","ECCENTRICITY":"0.00015800","REF_FRAME":"TEME","TIME_SYSTEM":"UTC","BSTAR":"0.00047120000000","PERIOD":"95.591","PERIAPSIS":"546.058"},{"NORAD_CAT_ID":"48312","COUNTRY_CODE":"US","MEAN_MOTION":"15.06405018","CENTER_NAME":"EARTH","CLASSIFICATION_TYPE":"U","SITE":"AFETR","OBJECT_NAME":"STARLINK-2061","TLE_LINE2":"2 48312  53.0550  13.5655 0001539  55.0448 305.0685 15.06405018 41144","MEAN_ANOMALY":"305.0685","MEAN_ELEMENT_THEORY":"SGP4","RCS_SIZE":"LARGE","APOAPSIS":"548.264","ELEMENT_SET_NO":"999","EPOCH":"2022-01-23T09:53:36.938976","FILE":"3280923","OBJECT_ID":"2021-036AN","REV_AT_EPOCH":"4114","MEAN_MOTION_DDOT":"0.0000000000000","RA_OF_ASC_NODE":"13.5655","OBJECT_TYPE":"PAYLOAD","GP_ID":"194463204","DECAY_DATE":null,"PERIAPSIS":"546.132","BSTAR":"0.00023756000000","PERIOD":"95.592","TIME_SYSTEM":"UTC","ECCENTRICITY":"0.00015390","REF_FRAME":"TEME","INCLINATION":"53.0550","MEAN_MOTION_DOT":"0.00003259","ARG_OF_PERICENTER":"55.0448","TLE_LINE1":"1 48312U 21036AN  22023.41223309  .00003259  00000-0  23756-3 0  9998","EPHEMERIS_TYPE":"0","SEMIMAJOR_AXIS":"6925.333","LAUNCH_DATE":"2021-04-29"},{"SEMIMAJOR_AXIS":"6925.320","LAUNCH_DATE":"2021-04-29","ARG_OF_PERICENTER":"63.1568","TLE_LINE1":"1 48313U 21036AP  22023.40853299  .00002833  00000-0  20896-3 0  9994","EPHEMERIS_TYPE":"0","MEAN_MOTION_DOT":"0.00002833","INCLINATION":"53.0542","ECCENTRICITY":"0.00015510","REF_FRAME":"TEME","TIME_SYSTEM":"UTC","BSTAR":"0.00020896000000","PERIOD":"95.592","PERIAPSIS":"546.111","RA_OF_ASC_NODE":"13.5792","OBJECT_TYPE":"PAYLOAD","GP_ID":"194463953","DECAY_DATE":null,"REV_AT_EPOCH":"4113","MEAN_MOTION_DDOT":"0.0000000000000","MEAN_ELEMENT_THEORY":"SGP4","APOAPSIS":"548.260","RCS_SIZE":"LARGE","EPOCH":"2022-01-23T09:48:17.250336","ELEMENT_SET_NO":"999","FILE":"3280923","OBJECT_ID":"2021-036AP","MEAN_ANOMALY":"296.9579","TLE_LINE2":"2 48313  53.0542  13.5792 0001551  63.1568 296.9579 15.06409165 41131","SITE":"AFETR","OBJECT_NAME":"STARLINK-2541","CENTER_NAME":"EARTH","CLASSIFICATION_TYPE":"U","NORAD_CAT_ID":"48313","COUNTRY_CODE":"US","MEAN_MOTION":"15.06409165"},{"OBJECT_NAME":"STARLINK-2549","SITE":"AFETR","TLE_LINE2":"2 48314  53.0549  13.9011 0001557  69.6319 290.4837 15.06409384 41126","COUNTRY_CODE":"US","MEAN_MOTION":"15.06409384","NORAD_CAT_ID":"48314","CLASSIFICATION_TYPE":"U","CENTER_NAME":"EARTH","MEAN_MOTION_DDOT":"0.0000000000000","REV_AT_EPOCH":"4112","DECAY_DATE":null,"GP_ID":"194464205","OBJECT_TYPE":"PAYLOAD","RA_OF_ASC_NODE":"13.9011","MEAN_ANOMALY":"290.4837","OBJECT_ID":"2021-036AQ","FILE":"3280923","RCS_SIZE":"LARGE","ELEMENT_SET_NO":"999","APOAPSIS":"548.263","EPOCH":"2022-01-23T08:07:26.029344","MEAN_ELEMENT_THEORY":"SGP4","TIME_SYSTEM":"UTC","REF_FRAME":"TEME","ECCENTRICITY":"0.00015570","PERIAPSIS":"546.107","PERIOD":"95.592","BSTAR":"0.00036465000000","EPHEMERIS_TYPE":"0","TLE_LINE1":"1 48314U 21036AQ  22023.33849571  .00005155  00000-0  36465-3 0  9994","ARG_OF_PERICENTER":"69.6319","LAUNCH_DATE":"2021-04-29","SEMIMAJOR_AXIS":"6925.320","INCLINATION":"53.0549","MEAN_MOTION_DOT":"0.00005155"},{"OBJECT_NAME":"STARLINK-2506","SITE":"AFETR","TLE_LINE2":"2 48315  53.0540  12.4314 0001635  75.3726 284.7444 15.06414065 41820","NORAD_CAT_ID":"48315","COUNTRY_CODE":"US","MEAN_MOTION":"15.06414065","CENTER_NAME":"EARTH","CLASSIFICATION_TYPE":"U","REV_AT_EPOCH":"4182","MEAN_MOTION_DDOT":"0.0000000000000","GP_ID":"194469192","DECAY_DATE":null,"RA_OF_ASC_NODE":"12.4314","OBJECT_TYPE":"PAYLOAD","MEAN_ANOMALY":"284.7444","FILE":"3281001","OBJECT_ID":"2021-036AR","MEAN_ELEMENT_THEORY":"SGP4","ELEMENT_SET_NO":"999","RCS_SIZE":"LARGE","APOAPSIS":"548.303","EPOCH":"2022-01-23T15:59:50.119584","TIME_SYSTEM":"UTC","ECCENTRICITY":"0.00016350","REF_FRAME":"TEME","PERIAPSIS":"546.038","BSTAR":"0.00046544000000","PERIOD":"95.591","EPHEMERIS_TYPE":"0","ARG_OF_PERICENTER":"75.3726","TLE_LINE1":"1 48315U 21036AR  22023.66655231  .00006661  00000-0  46544-3 0  9991","LAUNCH_DATE":"2021-04-29","SEMIMAJOR_AXIS":"6925.305","INCLINATION":"53.0540","MEAN_MOTION_DOT":"0.00006661"},{"BSTAR":"0.00055703000000","PERIOD":"95.591","PERIAPSIS":"546.078","ECCENTRICITY":"0.00015900","REF_FRAME":"TEME","TIME_SYSTEM":"UTC","MEAN_MOTION_DOT":"0.00008028","INCLINATION":"53.0541","SEMIMAJOR_AXIS":"6925.314","LAUNCH_DATE":"2021-04-29","ARG_OF_PERICENTER":"65.5204","TLE_LINE1":"1 48316U 21036AS  22023.33113698  .00008028  00000-0  55703-3 0  9998","EPHEMERIS_TYPE":"0","CENTER_NAME":"EARTH","CLASSIFICATION_TYPE":"U","NORAD_CAT_ID":"48316","COUNTRY_CODE":"US","MEAN_MOTION":"15.06411370","TLE_LINE2":"2 48316  53.0541  13.9395 0001590  65.5204 294.5950 15.06411370 41129","SITE":"AFETR","OBJECT_NAME":"STARLINK-2507","MEAN_ELEMENT_THEORY":"SGP4","RCS_SIZE":"LARGE","ELEMENT_SET_NO":"999","APOAPSIS":"548.280","EPOCH":"2022-01-23T07:56:50.235072","FILE":"3280923","OBJECT_ID":"2021-036AS","MEAN_ANOMALY":"294.5950","RA_OF_ASC_NODE":"13.9395","OBJECT_TYPE":"PAYLOAD","GP_ID":"194463704","DECAY_DATE":null,"REV_AT_EPOCH":"4112","MEAN_MOTION_DDOT":"0.0000000000000"},{"ELEMENT_SET_NO":"999","RCS_SIZE":"LARGE","APOAPSIS":"548.320","EPOCH":"2022-01-23T15:49:12.961920","MEAN_ELEMENT_THEORY":"SGP4","OBJECT_ID":"2021-036AT","FILE":"3280987","MEAN_ANOMALY":"291.9373","OBJECT_TYPE":"PAYLOAD","RA_OF_ASC_NODE":"12.4604","DECAY_DATE":null,"GP_ID":"194468668","MEAN_MOTION_DDOT":"0.0000000000000","REV_AT_EPOCH":"4182","CLASSIFICATION_TYPE":"U","CENTER_NAME":"EARTH","COUNTRY_CODE":"US","MEAN_MOTION":"15.06407168","NORAD_CAT_ID":"48317","TLE_LINE2":"2 48317  53.0556  12.4604 0001629  68.1789 291.9373 15.06407168 41820","SITE":"AFETR","OBJECT_NAME":"STARLINK-2513","MEAN_MOTION_DOT":"0.00004127","INCLINATION":"53.0556","SEMIMAJOR_AXIS":"6925.327","LAUNCH_DATE":"2021-04-29","TLE_LINE1":"1 48317U 21036AT  22023.65917780  .00004127  00000-0  29573-3 0  9990","ARG_OF_PERICENTER":"68.1789","EPHEMERIS_TYPE":"0","PERIOD":"95.592","BSTAR":"0.00029573000000","PERIAPSIS":"546.063","REF_FRAME":"TEME","ECCENTRICITY":"0.00016290","TIME_SYSTEM":"UTC"},{"PERIAPSIS":"546.182","BSTAR":"0.00007814300000","PERIOD":"95.592","TIME_SYSTEM":"UTC","ECCENTRICITY":"0.00014930","REF_FRAME":"TEME","INCLINATION":"53.0566","MEAN_MOTION_DOT":"0.00000883","ARG_OF_PERICENTER":"69.3320","TLE_LINE1":"1 48318U 21036AU  22023.31915043  .00000883  00000-0  78143-4 0  9997","EPHEMERIS_TYPE":"0","SEMIMAJOR_AXIS":"6925.351","LAUNCH_DATE":"2021-04-29","NORAD_CAT_ID":"48318","MEAN_MOTION":"15.06399341","COUNTRY_CODE":"US","CLASSIFICATION_TYPE":"U","CENTER_NAME":"EARTH","SITE":"AFETR","OBJECT_NAME":"STARLINK-2509","TLE_LINE2":"2 48318  53.0566  23.9720 0001493  69.3320 290.7829 15.06399341 40983","MEAN_ANOMALY":"290.7829","MEAN_ELEMENT_THEORY":"SGP4","RCS_SIZE":"LARGE","ELEMENT_SET_NO":"999","APOAPSIS":"548.250","EPOCH":"2022-01-23T07:39:34.597152","FILE":"3280923","OBJECT_ID":"2021-036AU","REV_AT_EPOCH":"4098","MEAN_MOTION_DDOT":"0.0000000000000","RA_OF_ASC_NODE":"23.9720","OBJECT_TYPE":"PAYLOAD","GP_ID":"194464705","DECAY_DATE":null},{"CLASSIFICATION_TYPE":"U","CENTER_NAME":"EARTH","COUNTRY_CODE":"US","MEAN_MOTION":"15.06403491","NORAD_CAT_ID":"48319","TLE_LINE2":"2 48319  53.0541  23.6866 0001501  72.4851 287.6302 15.06403491 40993","SITE":"AFETR","OBJECT_NAME":"STARLINK-2512","RCS_SIZE":"LARGE","EPOCH":"2022-01-23T09:09:48.753792","APOAPSIS":"548.242","ELEMENT_SET_NO":"999","MEAN_ELEMENT_THEORY":"SGP4","OBJECT_ID":"2021-036AV","FILE":"3280923","MEAN_ANOMALY":"287.6302","OBJECT_TYPE":"PAYLOAD","RA_OF_ASC_NODE":"23.6866","DECAY_DATE":null,"GP_ID":"194464948","MEAN_MOTION_DDOT":"0.0000000000000","REV_AT_EPOCH":"4099","PERIOD":"95.592","BSTAR":"0.00015781000000","PERIAPSIS":"546.163","REF_FRAME":"TEME","ECCENTRICITY":"0.00015010","TIME_SYSTEM":"UTC","MEAN_MOTION_DOT":"0.00002070","INCLINATION":"53.0541","SEMIMAJOR_AXIS":"6925.338","LAUNCH_DATE":"2021-04-29","TLE_LINE1":"1 48319U 21036AV  22023.38181428  .00002070  00000-0  15781-3 0  9995","ARG_OF_PERICENTER":"72.4851","EPHEMERIS_TYPE":"0"}];
